SAOCOM 1A               
1 43641U 18076A   26117.84069170  .00000481  00000+0  67033-4 0  9997
2 43641  97.8904 305.3185 0001549  87.1358 273.0032 14.82156208408649
H-2A R/B                
1 43682U 18084L   26117.58409326  .00020596  00000+0  46025-3 0  9999
2 43682  98.8660 345.4860 0023446 210.4468 149.5415 15.43280725413314
SAOCOM 1B               
1 46265U 20059A   26117.80439934  .00000856  00000+0  11405-3 0  9998
2 46265  97.8895 304.3763 0001552  85.7192 274.4199 14.82144899306029
CSS (TIANHE)            
1 48274U 21035A   26117.82326002  .00029167  00000+0  31352-3 0  9997
2 48274  41.4671 268.6646 0006797 286.5652  73.4441 15.63075705285299
COSMOS 2550             
1 48865U 21056A   26117.81424957 -.00000086  00000+0  32289-5 0  9995
2 48865  67.1406 252.2803 0008395 269.9704  90.0489 15.33829185270993
CZ-2C R/B               
1 52794U 22058K   26117.57340909  .00045712  00000+0  58262-3 0  9992
2 52794  50.1874  66.1234 0038537  50.3268 310.1093 15.57905619217742
CZ-2C R/B               
1 54039U 22132E   26117.75987330  .00050126  00000+0  48117-3 0  9997
2 54039  97.2933 122.7396 0012931 262.7163  97.2628 15.66368887198043
GSLV R/B                
1 54149U 22138AN  26117.58732382  .00002230  00000+0  19052-3 0  9990
2 54149  87.3812 149.9774 0020314 340.7395  19.3067 14.97034361191247
XRISM                   
1 57800U 23137A   26117.76313507  .00005934  00000+0  33120-3 0  9997
2 57800  31.0024 326.1180 0007556 175.1891 184.8821 15.12024320145224
ACS3                    
1 59588U 24077B   26117.77932382  .00011489  00000+0  88910-2 0  9993
2 59588  97.1812  47.8651 0058874 344.7558  15.1832 13.91955295101027
HTV-X1                  
1 66174U 25241A   26112.99220554  .00004413  00000+0  14900-3 0  9994
2 66174  51.6353 219.4042 0007821 344.1053  15.9682 15.32728944 27734
SZ-21 MODULE            
1 66515U 25246C   26117.78326227  .00042273  00000+0  30978-3 0  9993
2 66515  41.4732 260.2672 0003820 338.0640  22.0039 15.72357657 25795
