[{"OBJECT_NAME":"SAOCOM 1A","OBJECT_ID":"2018-076A","EPOCH":"2026-04-27T20:10:35.762880","MEAN_MOTION":14.82156208,"ECCENTRICITY":0.0001549,"INCLINATION":97.8904,"RA_OF_ASC_NODE":305.3185,"ARG_OF_PERICENTER":87.1358,"MEAN_ANOMALY":273.0032,"EPHEMERIS_TYPE":0,"CLASSIFICATION_TYPE":"U","NORAD_CAT_ID":43641,"ELEMENT_SET_NO":999,"REV_AT_EPOCH":40864,"BSTAR":6.7033e-5,"MEAN_MOTION_DOT":4.81e-6,"MEAN_MOTION_DDOT":0},{"OBJECT_NAME":"H-2A R/B","OBJECT_ID":"2018-084L","EPOCH":"2026-04-27T14:01:05.657664","MEAN_MOTION":15.43280725,"ECCENTRICITY":0.0023446,"INCLINATION":98.866,"RA_OF_ASC_NODE":345.486,"ARG_OF_PERICENTER":210.4468,"MEAN_ANOMALY":149.5415,"EPHEMERIS_TYPE":0,"CLASSIFICATION_TYPE":"U","NORAD_CAT_ID":43682,"ELEMENT_SET_NO":999,"REV_AT_EPOCH":41331,"BSTAR":0.00046025,"MEAN_MOTION_DOT":0.00020596,"MEAN_MOTION_DDOT":0},{"OBJECT_NAME":"SAOCOM 1B","OBJECT_ID":"2020-059A","EPOCH":"2026-04-27T19:18:20.102976","MEAN_MOTION":14.82144899,"ECCENTRICITY":0.0001552,"INCLINATION":97.8895,"RA_OF_ASC_NODE":304.3763,"ARG_OF_PERICENTER":85.7192,"MEAN_ANOMALY":274.4199,"EPHEMERIS_TYPE":0,"CLASSIFICATION_TYPE":"U","NORAD_CAT_ID":46265,"ELEMENT_SET_NO":999,"REV_AT_EPOCH":30602,"BSTAR":0.00011405,"MEAN_MOTION_DOT":8.56e-6,"MEAN_MOTION_DDOT":0},{"OBJECT_NAME":"CSS (TIANHE)","OBJECT_ID":"2021-035A","EPOCH":"2026-04-27T19:45:29.665728","MEAN_MOTION":15.63075705,"ECCENTRICITY":0.0006797,"INCLINATION":41.4671,"RA_OF_ASC_NODE":268.6646,"ARG_OF_PERICENTER":286.5652,"MEAN_ANOMALY":73.4441,"EPHEMERIS_TYPE":0,"CLASSIFICATION_TYPE":"U","NORAD_CAT_ID":48274,"ELEMENT_SET_NO":999,"REV_AT_EPOCH":28529,"BSTAR":0.00031352,"MEAN_MOTION_DOT":0.00029167,"MEAN_MOTION_DDOT":0},{"OBJECT_NAME":"COSMOS 2550","OBJECT_ID":"2021-056A","EPOCH":"2026-04-27T19:32:31.162848","MEAN_MOTION":15.33829185,"ECCENTRICITY":0.0008395,"INCLINATION":67.1406,"RA_OF_ASC_NODE":252.2803,"ARG_OF_PERICENTER":269.9704,"MEAN_ANOMALY":90.0489,"EPHEMERIS_TYPE":0,"CLASSIFICATION_TYPE":"U","NORAD_CAT_ID":48865,"ELEMENT_SET_NO":999,"REV_AT_EPOCH":27099,"BSTAR":3.2289e-6,"MEAN_MOTION_DOT":-8.6e-7,"MEAN_MOTION_DDOT":0},{"OBJECT_NAME":"CZ-2C R/B","OBJECT_ID":"2022-058K","EPOCH":"2026-04-27T13:45:42.545376","MEAN_MOTION":15.57905619,"ECCENTRICITY":0.0038537,"INCLINATION":50.1874,"RA_OF_ASC_NODE":66.1234,"ARG_OF_PERICENTER":50.3268,"MEAN_ANOMALY":310.1093,"EPHEMERIS_TYPE":0,"CLASSIFICATION_TYPE":"U","NORAD_CAT_ID":52794,"ELEMENT_SET_NO":999,"REV_AT_EPOCH":21774,"BSTAR":0.00058262,"MEAN_MOTION_DOT":0.00045712,"MEAN_MOTION_DDOT":0},{"OBJECT_NAME":"CZ-2C R/B","OBJECT_ID":"2022-132E","EPOCH":"2026-04-27T18:14:13.053120","MEAN_MOTION":15.66368887,"ECCENTRICITY":0.0012931,"INCLINATION":97.2933,"RA_OF_ASC_NODE":122.7396,"ARG_OF_PERICENTER":262.7163,"MEAN_ANOMALY":97.2628,"EPHEMERIS_TYPE":0,"CLASSIFICATION_TYPE":"U","NORAD_CAT_ID":54039,"ELEMENT_SET_NO":999,"REV_AT_EPOCH":19804,"BSTAR":0.00048117,"MEAN_MOTION_DOT":0.00050126,"MEAN_MOTION_DDOT":0},{"OBJECT_NAME":"GSLV R/B","OBJECT_ID":"2022-138AN","EPOCH":"2026-04-27T14:05:44.778048","MEAN_MOTION":14.97034361,"ECCENTRICITY":0.0020314,"INCLINATION":87.3812,"RA_OF_ASC_NODE":149.9774,"ARG_OF_PERICENTER":340.7395,"MEAN_ANOMALY":19.3067,"EPHEMERIS_TYPE":0,"CLASSIFICATION_TYPE":"U","NORAD_CAT_ID":54149,"ELEMENT_SET_NO":999,"REV_AT_EPOCH":19124,"BSTAR":0.00019052,"MEAN_MOTION_DOT":2.23e-5,"MEAN_MOTION_DDOT":0},{"OBJECT_NAME":"XRISM","OBJECT_ID":"2023-137A","EPOCH":"2026-04-27T18:18:54.870048","MEAN_MOTION":15.1202432,"ECCENTRICITY":0.0007556,"INCLINATION":31.0024,"RA_OF_ASC_NODE":326.118,"ARG_OF_PERICENTER":175.1891,"MEAN_ANOMALY":184.8821,"EPHEMERIS_TYPE":0,"CLASSIFICATION_TYPE":"U","NORAD_CAT_ID":57800,"ELEMENT_SET_NO":999,"REV_AT_EPOCH":14522,"BSTAR":0.0003312,"MEAN_MOTION_DOT":5.934e-5,"MEAN_MOTION_DDOT":0},{"OBJECT_NAME":"ACS3","OBJECT_ID":"2024-077B","EPOCH":"2026-04-27T18:42:13.578048","MEAN_MOTION":13.91955295,"ECCENTRICITY":0.0058874,"INCLINATION":97.1812,"RA_OF_ASC_NODE":47.8651,"ARG_OF_PERICENTER":344.7558,"MEAN_ANOMALY":15.1832,"EPHEMERIS_TYPE":0,"CLASSIFICATION_TYPE":"U","NORAD_CAT_ID":59588,"ELEMENT_SET_NO":999,"REV_AT_EPOCH":10102,"BSTAR":0.008891,"MEAN_MOTION_DOT":0.00011489,"MEAN_MOTION_DDOT":0},{"OBJECT_NAME":"HTV-X1","OBJECT_ID":"2025-241A","EPOCH":"2026-04-22T23:48:46.558656","MEAN_MOTION":15.32728944,"ECCENTRICITY":0.00078219,"INCLINATION":51.6353,"RA_OF_ASC_NODE":219.4042,"ARG_OF_PERICENTER":344.1053,"MEAN_ANOMALY":15.9682,"EPHEMERIS_TYPE":0,"CLASSIFICATION_TYPE":"U","NORAD_CAT_ID":66174,"ELEMENT_SET_NO":999,"REV_AT_EPOCH":2773,"BSTAR":0.00014900059,"MEAN_MOTION_DOT":4.413e-5,"MEAN_MOTION_DDOT":0},{"OBJECT_NAME":"SZ-21 MODULE","OBJECT_ID":"2025-246C","EPOCH":"2026-04-27T18:47:53.860128","MEAN_MOTION":15.72357657,"ECCENTRICITY":0.000382,"INCLINATION":41.4732,"RA_OF_ASC_NODE":260.2672,"ARG_OF_PERICENTER":338.064,"MEAN_ANOMALY":22.0039,"EPHEMERIS_TYPE":0,"CLASSIFICATION_TYPE":"U","NORAD_CAT_ID":66515,"ELEMENT_SET_NO":999,"REV_AT_EPOCH":2579,"BSTAR":0.00030978,"MEAN_MOTION_DOT":0.00042273,"MEAN_MOTION_DDOT":0}]
